GLOBALSTAR M075         
1 37192U 10054E   25081.47889470 -.00000102  00000+0  10690-4 0  9998
2 37192  51.9935  85.5411 0000326 103.2598  57.2302 12.62262582664897
GLOBALSTAR M073         
1 37193U 10054F   25081.48165266 -.00000038  00000+0  36776-3 0  9990
2 37193  52.0129 359.2888 0000740  90.8845  80.0123 12.62269248666882
GLOBALSTAR M083         
1 37739U 11033A   25081.62146181 -.00000065  00000+0  21625-3 0  9992
2 37739  51.9864 307.7148 0000892  78.9186 309.0214 12.62260958635927
GLOBALSTAR M088         
1 37740U 11033B   25081.52680954 -.00000082  00000+0  12089-3 0  9997
2 37740  51.9723 213.5631 0000762 102.1113 336.1146 12.62264481631454
GLOBALSTAR M091         
1 37741U 11033C   25081.63291722 -.00000084  00000+0  11003-3 0  9998
2 37741  51.9989 176.6425 0000673  91.8892  47.9004 12.62266218632257
GLOBALSTAR M085         
1 37742U 11033D   25081.54232057 -.00000099  00000+0  24532-4 0  9993
2 37742  51.9847 128.0332 0000513  93.9467  54.0602 12.62266634632753
